{
    "links": {
        "self": "http://www.neowsapp.com/rest/v1/neo/3739258?api_key=iIulBulltgU6a56xZRHN4H3l9WmuAYTsLGpBGhQ2"
    },
    "id": "3739258",
    "neo_reference_id": "3739258",
    "name": "(2016 AH9)",
    "designation": "2016 AH9",
    "nasa_jpl_url": "http://ssd.jpl.nasa.gov/sbdb.cgi?sstr=3739258",
    "absolute_magnitude_h": 25.0,
    "estimated_diameter": {
        "kilometers": {
            "estimated_diameter_min": 0.02658,
            "estimated_diameter_max": 0.0594346868
        },
        "meters": {
            "estimated_diameter_min": 26.58,
            "estimated_diameter_max": 59.4346868419
        },
        "miles": {
            "estimated_diameter_min": 0.0165160412,
            "estimated_diameter_max": 0.0369309908
        },
        "feet": {
            "estimated_diameter_min": 87.2047272,
            "estimated_diameter_max": 194.9956979785
        }
    },
    "is_potentially_hazardous_asteroid": false,
    "close_approach_data": [
        {
            "close_approach_date": "2015-12-20",
            "close_approach_date_full": "2015-Dec-20 23:27",
            "epoch_date_close_approach": 1450654020000,
            "relative_velocity": {
                "kilometers_per_second": "13.8339864721",
                "kilometers_per_hour": "49802.3512994387",
                "miles_per_hour": "30945.2443393651"
            },
            "miss_distance": {
                "astronomical": "0.0419467383",
                "lunar": "16.3172811987",
                "kilometers": "6275142.703127421",
                "miles": "3899192.8677475698"
            },
            "orbiting_body": "Earth"
        }
    ],
    "orbital_data": {
        "orbit_id": "4",
        "orbit_determination_date": "2017-04-06 08:29:25",
        "first_observation_date": "2016-01-03",
        "last_observation_date": "2016-01-13",
        "data_arc_in_days": 10,
        "observations_used": 13,
        "orbit_uncertainty": "8",
        "minimum_orbit_intersection": ".00935337",
        "jupiter_tisserand_invariant": "4.062",
        "epoch_osculation": "2457394.5",
        "eccentricity": ".5559782588068589",
        "semi_major_axis": "1.666138906182968",
        "inclination": "2.992735209657657",
        "ascending_node_longitude": "102.3301798410162",
        "orbital_period": "785.5344491244226",
        "perihelion_distance": ".739801898192997",
        "perihelion_argument": "277.2408300694013",
        "aphelion_distance": "2.592475914172939",
        "perihelion_time": "2457332.436085920780",
        "mean_anomaly": "28.44306712891243",
        "mean_motion": ".458286712188454",
        "equinox": "J2000",
        "orbit_class": {
            "orbit_class_type": "APO",
            "orbit_class_description": "Near-Earth asteroid orbits which cross the Earth’s orbit similar to that of 1862 Apollo",
            "orbit_class_range": "a (semi-major axis) > 1.0 AU; q (perihelion) < 1.017 AU"
        }
    },
    "is_sentry_object": false
}